{"type": "FeatureCollection", "features": [ {"type": "Feature", "properties": {"norad_id": 66909, "name": "SILVERSAT", "group": "last-30-days", "lat": 50.49218877925996, "lon": 154.50160825360524, "alt_km": 402.0176698643563, "timestamp": "2025-12-25T03:55:54.954979+00:00", "meta": {"OBJECT_NAME": "SILVERSAT", "OBJECT_ID": "1998-067XV", "EPOCH": "2025-12-24T05:58:18.632928", "MEAN_MOTION": 15.53164124, "ECCENTRICITY": 0.00038593, "INCLINATION": 51.6308, "RA_OF_ASC_NODE": 85.1451, "ARG_OF_PERICENTER": 300.0708, "MEAN_ANOMALY": 59.99, "EPHEMERIS_TYPE": 0, "CLASSIFICATION_TYPE": "U", "NORAD_CAT_ID": 66909, "ELEMENT_SET_NO": 999, "REV_AT_EPOCH": 340, "BSTAR": 0.0012166372, "MEAN_MOTION_DOT": 0.00078073, "MEAN_MOTION_DDOT": 0}, "tle": {"line1": "1 66909U 98067XV  25358.24882677  .00078073  00000+0  12166-2 0  9999", "line2": "2 66909  51.6308  85.1451 0003859 300.0708  59.9900 15.53164124  3403"}}, "geometry": {"type": "Point", "coordinates": [154.50160825360524, 50.49218877925996]}}, {"type": "Feature", "properties": {"norad_id": 66910, "name": "1998-067XW", "group": "last-30-days", "lat": 51.60212998344065, "lon": 169.10655319302796, "alt_km": 402.8374156703594, "timestamp": "2025-12-25T03:55:54.954991+00:00", "meta": {"OBJECT_NAME": "1998-067XW", "OBJECT_ID": "1998-067XW", "EPOCH": "2025-12-24T15:11:47.467392", "MEAN_MOTION": 15.53149596, "ECCENTRICITY": 0.0003874, "INCLINATION": 51.6312, "RA_OF_ASC_NODE": 83.2108, "ARG_OF_PERICENTER": 273.1727, "MEAN_ANOMALY": 86.882, "EPHEMERIS_TYPE": 0, "CLASSIFICATION_TYPE": "U", "NORAD_CAT_ID": 66910, "ELEMENT_SET_NO": 999, "REV_AT_EPOCH": 346, "BSTAR": 0.0010216, "MEAN_MOTION_DOT": 0.00065339, "MEAN_MOTION_DDOT": 0}, "tle": {"line1": "1 66910U 98067XW  25358.63318828  .00065339  00000+0  10216-2 0  9991", "line2": "2 66910  51.6312  83.2108 0003874 273.1727  86.8820 15.53149596  3468"}}, "geometry": {"type": "Point", "coordinates": [169.10655319302796, 51.60212998344065]}}, {"type": "Feature", "properties": {"norad_id": 66911, "name": "1998-067XX", "group": "last-30-days", "lat": 47.20635790186562, "lon": -158.3223365814936, "alt_km": 401.7923233243964, "timestamp": "2025-12-25T03:55:54.955001+00:00", "meta": {"OBJECT_NAME": "1998-067XX", "OBJECT_ID": "1998-067XX", "EPOCH": "2025-12-24T05:50:45.830400", "MEAN_MOTION": 15.53583862, "ECCENTRICITY": 0.00036335, "INCLINATION": 51.6309, "RA_OF_ASC_NODE": 85.1103, "ARG_OF_PERICENTER": 279.0791, "MEAN_ANOMALY": 80.9788, "EPHEMERIS_TYPE": 0, "CLASSIFICATION_TYPE": "U", "NORAD_CAT_ID": 66911, "ELEMENT_SET_NO": 999, "REV_AT_EPOCH": 339, "BSTAR": 0.0012104757, "MEAN_MOTION_DOT": 0.00078877, "MEAN_MOTION_DDOT": 0}, "tle": {"line1": "1 66911U 98067XX  25358.24358600  .00078877  00000+0  12105-2 0  9991", "line2": "2 66911  51.6309  85.1103 0003633 279.0791  80.9788 15.53583862  3398"}}, "geometry": {"type": "Point", "coordinates": [-158.3223365814936, 47.20635790186562]}}, {"type": "Feature", "properties": {"norad_id": 66912, "name": "1998-067XY", "group": "last-30-days", "lat": 28.893035461336684, "lon": 106.59883375012576, "alt_km": 407.18770313122695, "timestamp": "2025-12-25T03:55:54.955013+00:00", "meta": {"OBJECT_NAME": "1998-067XY", "OBJECT_ID": "1998-067XY", "EPOCH": "2025-12-23T06:57:34.859520", "MEAN_MOTION": 15.52133019, "ECCENTRICITY": 0.00038791, "INCLINATION": 51.6317, "RA_OF_ASC_NODE": 89.9922, "ARG_OF_PERICENTER": 281.5198, "MEAN_ANOMALY": 78.5356, "EPHEMERIS_TYPE": 0, "CLASSIFICATION_TYPE": "U", "NORAD_CAT_ID": 66912, "ELEMENT_SET_NO": 999, "REV_AT_EPOCH": 324, "BSTAR": 0.00084098106, "MEAN_MOTION_DOT": 0.00051669, "MEAN_MOTION_DDOT": 0}, "tle": {"line1": "1 66912U 98067XY  25357.28998680  .00051669  00000+0  84098-3 0  9994", "line2": "2 66912  51.6317  89.9922 0003879 281.5198  78.5356 15.52133019  3242"}}, "geometry": {"type": "Point", "coordinates": [106.59883375012576, 28.893035461336684]}}, {"type": "Feature", "properties": {"norad_id": 66913, "name": "2025-284A", "group": "last-30-days", "lat": 3.5579792942495008, "lon": 114.76976994581334, "alt_km": 545.2834137960463, "timestamp": "2025-12-25T03:55:54.955024+00:00", "meta": {"OBJECT_NAME": "2025-284A", "OBJECT_ID": "2025-284A", "EPOCH": "2025-12-23T02:34:46.438752", "MEAN_MOTION": 15.08893564, "ECCENTRICITY": 0.0013475, "INCLINATION": 80.4035, "RA_OF_ASC_NODE": 116.7336, "ARG_OF_PERICENTER": 259.6514, "MEAN_ANOMALY": 100.3189, "EPHEMERIS_TYPE": 0, "CLASSIFICATION_TYPE": "U", "NORAD_CAT_ID": 66913, "ELEMENT_SET_NO": 999, "REV_AT_EPOCH": 269, "BSTAR": 0.00055263602, "MEAN_MOTION_DOT": 8.748e-05, "MEAN_MOTION_DDOT": 0}, "tle": {"line1": "1 66913U 25284A   25357.10748193  .00008748  00000+0  55264-3 0  9992", "line2": "2 66913  80.4035 116.7336 0013475 259.6514 100.3189 15.08893564  2694"}}, "geometry": {"type": "Point", "coordinates": [114.76976994581334, 3.5579792942495008]}}, {"type": "Feature", "properties": {"norad_id": 66914, "name": "2025-284B", "group": "last-30-days", "lat": -74.02250516363888, "lon": 77.79888916006546, "alt_km": 514.4522301865645, "timestamp": "2025-12-25T03:55:54.955034+00:00", "meta": {"OBJECT_NAME": "2025-284B", "OBJECT_ID": "2025-284B", "EPOCH": "2025-12-16T06:51:11.417184", "MEAN_MOTION": 15.18985981, "ECCENTRICITY": 0.00081793, "INCLINATION": 80.4045, "RA_OF_ASC_NODE": 125.2713, "ARG_OF_PERICENTER": 234.9626, "MEAN_ANOMALY": 125.0834, "EPHEMERIS_TYPE": 0, "CLASSIFICATION_TYPE": "U", "NORAD_CAT_ID": 66914, "ELEMENT_SET_NO": 999, "REV_AT_EPOCH": 166, "BSTAR": 0.00038444995, "MEAN_MOTION_DOT": 8.068e-05, "MEAN_MOTION_DDOT": 0}, "tle": {"line1": "1 66914U 25284B   25350.28554881  .00008068  00000+0  38445-3 0  9991", "line2": "2 66914  80.4045 125.2713 0008179 234.9626 125.0834 15.18985981  1668"}}, "geometry": {"type": "Point", "coordinates": [77.79888916006546, -74.02250516363888]}}, {"type": "Feature", "properties": {"norad_id": 66915, "name": "HULIANWANG DIGUI-105", "group": "last-30-days", "lat": 10.016001755318145, "lon": 75.2067762737852, "alt_km": 876.2059177977999, "timestamp": "2025-12-25T03:55:54.955044+00:00", "meta": {"OBJECT_NAME": "HULIANWANG DIGUI-105", "OBJECT_ID": "2025-285A", "EPOCH": "2025-12-24T21:02:07.121184", "MEAN_MOTION": 14.03719718, "ECCENTRICITY": 0.0008119, "INCLINATION": 50.0055, "RA_OF_ASC_NODE": 67.8511, "ARG_OF_PERICENTER": 323.2474, "MEAN_ANOMALY": 36.7873, "EPHEMERIS_TYPE": 0, "CLASSIFICATION_TYPE": "U", "NORAD_CAT_ID": 66915, "ELEMENT_SET_NO": 999, "REV_AT_EPOCH": 261, "BSTAR": 0.00011665, "MEAN_MOTION_DOT": 3.3e-07, "MEAN_MOTION_DDOT": 0}, "tle": {"line1": "1 66915U 25285A   25358.87647131  .00000033  00000+0  11665-3 0  9996", "line2": "2 66915  50.0055  67.8511 0008119 323.2474  36.7873 14.03719718  2610"}}, "geometry": {"type": "Point", "coordinates": [75.2067762737852, 10.016001755318145]}}, {"type": "Feature", "properties": {"norad_id": 66916, "name": "HULIANWANG DIGUI-106", "group": "last-30-days", "lat": 20.755990509404562, "lon": 85.20594905561676, "alt_km": 876.7843733948357, "timestamp": "2025-12-25T03:55:54.955056+00:00", "meta": {"OBJECT_NAME": "HULIANWANG DIGUI-106", "OBJECT_ID": "2025-285B", "EPOCH": "2025-12-24T20:58:00.445728", "MEAN_MOTION": 14.03704543, "ECCENTRICITY": 0.0006901, "INCLINATION": 50.0065, "RA_OF_ASC_NODE": 67.838, "ARG_OF_PERICENTER": 316.5249, "MEAN_ANOMALY": 43.5111, "EPHEMERIS_TYPE": 0, "CLASSIFICATION_TYPE": "U", "NORAD_CAT_ID": 66916, "ELEMENT_SET_NO": 999, "REV_AT_EPOCH": 261, "BSTAR": 0.00011088, "MEAN_MOTION_DOT": 2.4e-07, "MEAN_MOTION_DDOT": 0}, "tle": {"line1": "1 66916U 25285B   25358.87361627  .00000024  00000+0  11088-3 0  9999", "line2": "2 66916  50.0065  67.8380 0006901 316.5249  43.5111 14.03704543  2619"}}, "geometry": {"type": "Point", "coordinates": [85.20594905561676, 20.755990509404562]}}, {"type": "Feature", "properties": {"norad_id": 66917, "name": "HULIANWANG DIGUI-107", "group": "last-30-days", "lat": 26.950895920992306, "lon": 91.90015989107579, "alt_km": 875.7243855200577, "timestamp": "2025-12-25T03:55:54.955066+00:00", "meta": {"OBJECT_NAME": "HULIANWANG DIGUI-107", "OBJECT_ID": "2025-285C", "EPOCH": "2025-12-24T20:55:31.058400", "MEAN_MOTION": 14.03664578, "ECCENTRICITY": 0.0007535, "INCLINATION": 50.003, "RA_OF_ASC_NODE": 67.8209, "ARG_OF_PERICENTER": 325.8979, "MEAN_ANOMALY": 34.1441, "EPHEMERIS_TYPE": 0, "CLASSIFICATION_TYPE": "U", "NORAD_CAT_ID": 66917, "ELEMENT_SET_NO": 999, "REV_AT_EPOCH": 261, "BSTAR": 0.00011472, "MEAN_MOTION_DOT": 3e-07, "MEAN_MOTION_DDOT": 0}, "tle": {"line1": "1 66917U 25285C   25358.87188725  .00000030  00000+0  11472-3 0  9990", "line2": "2 66917  50.0030  67.8209 0007535 325.8979  34.1441 14.03664578  2614"}}, "geometry": {"type": "Point", "coordinates": [91.90015989107579, 26.950895920992306]}}, {"type": "Feature", "properties": {"norad_id": 66918, "name": "HULIANWANG DIGUI-108", "group": "last-30-days", "lat": 28.983562726204166, "lon": 94.34101556222879, "alt_km": 876.5061839840937, "timestamp": "2025-12-25T03:55:54.955076+00:00", "meta": {"OBJECT_NAME": "HULIANWANG DIGUI-108", "OBJECT_ID": "2025-285D", "EPOCH": "2025-12-24T20:54:39.266784", "MEAN_MOTION": 14.0360367, "ECCENTRICITY": 0.0006678, "INCLINATION": 50.0062, "RA_OF_ASC_NODE": 67.8225, "ARG_OF_PERICENTER": 320.5207, "MEAN_ANOMALY": 39.521, "EPHEMERIS_TYPE": 0, "CLASSIFICATION_TYPE": "U", "NORAD_CAT_ID": 66918, "ELEMENT_SET_NO": 999, "REV_AT_EPOCH": 261, "BSTAR": 0.00011479, "MEAN_MOTION_DOT": 3e-07, "MEAN_MOTION_DDOT": 0}, "tle": {"line1": "1 66918U 25285D   25358.87128781  .00000030  00000+0  11479-3 0  9994", "line2": "2 66918  50.0062  67.8225 0006678 320.5207  39.5210 14.03603670  2610"}}, "geometry": {"type": "Point", "coordinates": [94.34101556222879, 28.983562726204166]}}]}